ONEWEB-0298             
1 49087U 21075N   23251.88661805  .00000090  00000+0  19777-3 0  9990
2 49087  87.9226 207.0019 0001772  76.9518 283.1812 13.17652609100316
ONEWEB-0299             
1 49088U 21075P   23251.88875216 -.00000028  00000+0 -10652-3 0  9990
2 49088  87.9159 207.0263 0001736  74.0579 286.0744 13.17649535100296
ONEWEB-0300             
1 49089U 21075Q   23251.90285053  .00000471  00000+0  12741-2 0  9998
2 49089  87.9055 191.8971 0001824  83.1040 277.0296 13.12441190102421
ONEWEB-0301             
1 49090U 21075R   23251.88799229 -.00000220  00000+0 -64746-3 0  9999
2 49090  87.9060 191.9019 0002104  89.9915 270.1454 13.12442810101788
ONEWEB-0302             
1 49091U 21075S   23251.87636500 -.00000209  00000+0 -61510-3 0  9994
2 49091  87.9058 191.9006 0002022  69.8127 290.3219 13.12445937101767
ONEWEB-0304             
1 49092U 21075T   23251.86554460  .00000087  00000+0  19172-3 0  9997
2 49092  87.9210 207.0116 0001823  77.9202 282.2133 13.17649458100269
ONEWEB-0305             
1 49093U 21075U   23251.93093402  .00000073  00000+0  15437-3 0  9995
2 49093  87.9135 207.0185 0001636  67.6823 292.4482 13.17648387100304
ONEWEB-0308             
1 49094U 21075V   23251.87108398 -.00000258  00000+0 -75257-3 0  9993
2 49094  87.9056 191.9044 0002003  82.2055 277.9301 13.12445478101772
